[{"OBJECT_NAME":"TANAGER-1","OBJECT_ID":"2024-149AR","EPOCH":"2026-04-26T23:34:44.359968","MEAN_MOTION":15.44300202,"ECCENTRICITY":0.0007443,"INCLINATION":97.345,"RA_OF_ASC_NODE":210.9779,"ARG_OF_PERICENTER":126.5489,"MEAN_ANOMALY":233.6445,"EPHEMERIS_TYPE":0,"CLASSIFICATION_TYPE":"U","NORAD_CAT_ID":60507,"ELEMENT_SET_NO":999,"REV_AT_EPOCH":9513,"BSTAR":0.00033618,"MEAN_MOTION_DOT":0.00015415,"MEAN_MOTION_DDOT":0},{"OBJECT_NAME":"FLOCK 4BE-29","OBJECT_ID":"2024-149AT","EPOCH":"2026-04-27T05:11:26.579040","MEAN_MOTION":15.42459737,"ECCENTRICITY":0.0004283,"INCLINATION":97.3808,"RA_OF_ASC_NODE":202.3902,"ARG_OF_PERICENTER":118.9679,"MEAN_ANOMALY":241.1998,"EPHEMERIS_TYPE":0,"CLASSIFICATION_TYPE":"U","NORAD_CAT_ID":60509,"ELEMENT_SET_NO":999,"REV_AT_EPOCH":9455,"BSTAR":0.00052098,"MEAN_MOTION_DOT":0.00022505,"MEAN_MOTION_DDOT":0},{"OBJECT_NAME":"FLOCK 4BE-2","OBJECT_ID":"2024-149AV","EPOCH":"2026-04-27T04:31:19.170048","MEAN_MOTION":15.47685709,"ECCENTRICITY":0.0004735,"INCLINATION":97.3817,"RA_OF_ASC_NODE":203.2427,"ARG_OF_PERICENTER":120.2447,"MEAN_ANOMALY":239.9273,"EPHEMERIS_TYPE":0,"CLASSIFICATION_TYPE":"U","NORAD_CAT_ID":60511,"ELEMENT_SET_NO":999,"REV_AT_EPOCH":9460,"BSTAR":0.0011483,"MEAN_MOTION_DOT":0.00059655,"MEAN_MOTION_DDOT":0},{"OBJECT_NAME":"FLOCK 4BE-13","OBJECT_ID":"2024-149AW","EPOCH":"2026-04-27T04:30:12.965184","MEAN_MOTION":15.40491833,"ECCENTRICITY":0.0005543,"INCLINATION":97.3721,"RA_OF_ASC_NODE":201.1247,"ARG_OF_PERICENTER":98.7559,"MEAN_ANOMALY":261.4315,"EPHEMERIS_TYPE":0,"CLASSIFICATION_TYPE":"U","NORAD_CAT_ID":60512,"ELEMENT_SET_NO":999,"REV_AT_EPOCH":9451,"BSTAR":0.00048106,"MEAN_MOTION_DOT":0.00019456,"MEAN_MOTION_DDOT":0},{"OBJECT_NAME":"FLOCK 4BE-27","OBJECT_ID":"2024-149AX","EPOCH":"2026-04-27T04:23:48.126624","MEAN_MOTION":15.33552583,"ECCENTRICITY":0.0005563,"INCLINATION":97.3829,"RA_OF_ASC_NODE":199.0454,"ARG_OF_PERICENTER":119.2651,"MEAN_ANOMALY":240.9148,"EPHEMERIS_TYPE":0,"CLASSIFICATION_TYPE":"U","NORAD_CAT_ID":60513,"ELEMENT_SET_NO":999,"REV_AT_EPOCH":9432,"BSTAR":0.00036931,"MEAN_MOTION_DOT":0.0001191,"MEAN_MOTION_DDOT":0},{"OBJECT_NAME":"FLOCK 4BE-9","OBJECT_ID":"2024-149AY","EPOCH":"2026-04-27T05:06:48.080736","MEAN_MOTION":15.39250359,"ECCENTRICITY":0.0004479,"INCLINATION":97.3792,"RA_OF_ASC_NODE":201.0524,"ARG_OF_PERICENTER":120.7922,"MEAN_ANOMALY":239.3765,"EPHEMERIS_TYPE":0,"CLASSIFICATION_TYPE":"U","NORAD_CAT_ID":60514,"ELEMENT_SET_NO":999,"REV_AT_EPOCH":9447,"BSTAR":0.00051885,"MEAN_MOTION_DOT":0.0002015,"MEAN_MOTION_DDOT":0},{"OBJECT_NAME":"FLOCK 4BE-6","OBJECT_ID":"2024-149BA","EPOCH":"2026-04-27T04:53:30.505056","MEAN_MOTION":15.38171463,"ECCENTRICITY":0.0005234,"INCLINATION":97.379,"RA_OF_ASC_NODE":200.4922,"ARG_OF_PERICENTER":119.116,"MEAN_ANOMALY":241.061,"EPHEMERIS_TYPE":0,"CLASSIFICATION_TYPE":"U","NORAD_CAT_ID":60516,"ELEMENT_SET_NO":999,"REV_AT_EPOCH":9443,"BSTAR":0.00044245,"MEAN_MOTION_DOT":0.00016571,"MEAN_MOTION_DDOT":0},{"OBJECT_NAME":"FLOCK 4BE-14","OBJECT_ID":"2024-149BB","EPOCH":"2026-04-27T03:59:26.071872","MEAN_MOTION":15.39410147,"ECCENTRICITY":0.0006182,"INCLINATION":97.3696,"RA_OF_ASC_NODE":200.552,"ARG_OF_PERICENTER":118.945,"MEAN_ANOMALY":241.2416,"EPHEMERIS_TYPE":0,"CLASSIFICATION_TYPE":"U","NORAD_CAT_ID":60517,"ELEMENT_SET_NO":999,"REV_AT_EPOCH":9447,"BSTAR":0.00055199,"MEAN_MOTION_DOT":0.00021566,"MEAN_MOTION_DDOT":0},{"OBJECT_NAME":"FLOCK 4BE-1","OBJECT_ID":"2024-149BC","EPOCH":"2026-04-27T04:02:22.883424","MEAN_MOTION":15.40897645,"ECCENTRICITY":0.0005715,"INCLINATION":97.3781,"RA_OF_ASC_NODE":201.6546,"ARG_OF_PERICENTER":119.3557,"MEAN_ANOMALY":240.8261,"EPHEMERIS_TYPE":0,"CLASSIFICATION_TYPE":"U","NORAD_CAT_ID":60518,"ELEMENT_SET_NO":999,"REV_AT_EPOCH":9451,"BSTAR":0.0005574,"MEAN_MOTION_DOT":0.00022872,"MEAN_MOTION_DDOT":0},{"OBJECT_NAME":"FLOCK 4BE-28","OBJECT_ID":"2024-149BD","EPOCH":"2026-04-27T04:37:17.323104","MEAN_MOTION":15.431043,"ECCENTRICITY":0.000579,"INCLINATION":97.3747,"RA_OF_ASC_NODE":202.2493,"ARG_OF_PERICENTER":114.8509,"MEAN_ANOMALY":245.3341,"EPHEMERIS_TYPE":0,"CLASSIFICATION_TYPE":"U","NORAD_CAT_ID":60519,"ELEMENT_SET_NO":999,"REV_AT_EPOCH":9457,"BSTAR":0.00053372,"MEAN_MOTION_DOT":0.0002357,"MEAN_MOTION_DDOT":0},{"OBJECT_NAME":"FLOCK 4BE-35","OBJECT_ID":"2024-149CU","EPOCH":"2026-04-26T20:05:38.374080","MEAN_MOTION":15.54311538,"ECCENTRICITY":0.0004119,"INCLINATION":97.3715,"RA_OF_ASC_NODE":201.1228,"ARG_OF_PERICENTER":153.4042,"MEAN_ANOMALY":206.7423,"EPHEMERIS_TYPE":0,"CLASSIFICATION_TYPE":"U","NORAD_CAT_ID":60558,"ELEMENT_SET_NO":999,"REV_AT_EPOCH":9445,"BSTAR":0.0020239,"MEAN_MOTION_DOT":0.00134296,"MEAN_MOTION_DDOT":0},{"OBJECT_NAME":"FLOCK 4BE-5","OBJECT_ID":"2024-149CV","EPOCH":"2026-04-27T04:46:57.130176","MEAN_MOTION":15.38784147,"ECCENTRICITY":0.0004839,"INCLINATION":97.3844,"RA_OF_ASC_NODE":200.7686,"ARG_OF_PERICENTER":120.2061,"MEAN_ANOMALY":239.9664,"EPHEMERIS_TYPE":0,"CLASSIFICATION_TYPE":"U","NORAD_CAT_ID":60559,"ELEMENT_SET_NO":999,"REV_AT_EPOCH":9443,"BSTAR":0.00051121,"MEAN_MOTION_DOT":0.00019552,"MEAN_MOTION_DDOT":0},{"OBJECT_NAME":"FLOCK 4BE-12","OBJECT_ID":"2024-149CW","EPOCH":"2026-04-27T04:17:40.518816","MEAN_MOTION":15.60210361,"ECCENTRICITY":0.0004319,"INCLINATION":97.3675,"RA_OF_ASC_NODE":202.4886,"ARG_OF_PERICENTER":169.8324,"MEAN_ANOMALY":190.3021,"EPHEMERIS_TYPE":0,"CLASSIFICATION_TYPE":"U","NORAD_CAT_ID":60560,"ELEMENT_SET_NO":999,"REV_AT_EPOCH":9459,"BSTAR":0.0027499,"MEAN_MOTION_DOT":0.00229885,"MEAN_MOTION_DDOT":0},{"OBJECT_NAME":"FLOCK 4BE-3","OBJECT_ID":"2024-149CX","EPOCH":"2026-04-27T05:31:01.314912","MEAN_MOTION":15.39978703,"ECCENTRICITY":0.0005865,"INCLINATION":97.3697,"RA_OF_ASC_NODE":200.7164,"ARG_OF_PERICENTER":114.1348,"MEAN_ANOMALY":246.0512,"EPHEMERIS_TYPE":0,"CLASSIFICATION_TYPE":"U","NORAD_CAT_ID":60561,"ELEMENT_SET_NO":999,"REV_AT_EPOCH":9449,"BSTAR":0.00060597,"MEAN_MOTION_DOT":0.00024135,"MEAN_MOTION_DDOT":0},{"OBJECT_NAME":"FLOCK 4BE-19","OBJECT_ID":"2024-149CZ","EPOCH":"2026-04-27T05:29:23.575776","MEAN_MOTION":15.4238427,"ECCENTRICITY":0.0005725,"INCLINATION":97.374,"RA_OF_ASC_NODE":202.0189,"ARG_OF_PERICENTER":115.6484,"MEAN_ANOMALY":244.5355,"EPHEMERIS_TYPE":0,"CLASSIFICATION_TYPE":"U","NORAD_CAT_ID":60563,"ELEMENT_SET_NO":999,"REV_AT_EPOCH":9456,"BSTAR":0.00056901,"MEAN_MOTION_DOT":0.00024538,"MEAN_MOTION_DDOT":0},{"OBJECT_NAME":"FLOCK 4G-8","OBJECT_ID":"2025-009E","EPOCH":"2026-04-26T20:23:43.753344","MEAN_MOTION":15.28736337,"ECCENTRICITY":0.00056493,"INCLINATION":97.4009,"RA_OF_ASC_NODE":199.1098,"ARG_OF_PERICENTER":130.5153,"MEAN_ANOMALY":229.6579,"EPHEMERIS_TYPE":0,"CLASSIFICATION_TYPE":"U","NORAD_CAT_ID":62613,"ELEMENT_SET_NO":999,"REV_AT_EPOCH":7107,"BSTAR":0.00043710135,"MEAN_MOTION_DOT":0.00012148,"MEAN_MOTION_DDOT":0}]
